[{"OBJECT_NAME":"STARLINK-5408","OBJECT_ID":"2022-175BE","EPOCH":"2026-03-09T07:09:38.209824","MEAN_MOTION":15.08837616,"ECCENTRICITY":0.000175,"INCLINATION":53.219,"RA_OF_ASC_NODE":25.6449,"ARG_OF_PERICENTER":85.9227,"MEAN_ANOMALY":274.1965,"EPHEMERIS_TYPE":0,"CLASSIFICATION_TYPE":"U","NORAD_CAT_ID":54810,"ELEMENT_SET_NO":999,"REV_AT_EPOCH":18014,"BSTAR":6.452647e-6,"MEAN_MOTION_DOT":-1.85e-6,"MEAN_MOTION_DDOT":0},{"OBJECT_NAME":"NOAA 17 DEB","OBJECT_ID":"2002-032CE","EPOCH":"2026-03-09T04:37:56.707680","MEAN_MOTION":15.14538728,"ECCENTRICITY":0.00195132,"INCLINATION":98.8443,"RA_OF_ASC_NODE":158.3366,"ARG_OF_PERICENTER":246.7141,"MEAN_ANOMALY":113.2034,"EPHEMERIS_TYPE":0,"CLASSIFICATION_TYPE":"U","NORAD_CAT_ID":48745,"ELEMENT_SET_NO":999,"REV_AT_EPOCH":26329,"BSTAR":0.0059143418,"MEAN_MOTION_DOT":0.00111029,"MEAN_MOTION_DDOT":0}]
